start=new Date('2022-06-10T00:00:00.000Z').valueOf();
sats=[{"SEMIMAJOR_AXIS":"6838.500","OBJECT_NAME":"STARLINK-3739","CENTER_NAME":"EARTH","MEAN_ANOMALY":"226.2669","APOAPSIS":"461.600","EPOCH":"2022-06-09T22:00:00.999936","SITE":"AFETR","ECCENTRICITY":"0.00018050","TIME_SYSTEM":"UTC","TLE_LINE1":"1 52266U 22041F   22160.91667824 -.00716616  00000-0 -22392-1 0  9992","CLASSIFICATION_TYPE":"U","MEAN_ELEMENT_THEORY":"SGP4","FILE":"3489040","MEAN_MOTION_DOT":"-0.00716616","MEAN_MOTION_DDOT":"0.0000000000000","ARG_OF_PERICENTER":"39.4383","BSTAR":"-0.02239200000000","EPHEMERIS_TYPE":"0","OBJECT_ID":"2022-041F","LAUNCH_DATE":"2022-04-21","REV_AT_EPOCH":"130","INCLINATION":"53.2174","REF_FRAME":"TEME","NORAD_CAT_ID":"52266","TLE_LINE2":"2 52266  53.2174 135.4310 0001805  39.4383 226.2669 15.35187569  1303","ELEMENT_SET_NO":"999","OBJECT_TYPE":"PAYLOAD","PERIOD":"93.800","RCS_SIZE":"LARGE","COUNTRY_CODE":"US","GP_ID":"205783952","MEAN_MOTION":"15.35187569","RA_OF_ASC_NODE":"135.4310","DECAY_DATE":null,"PERIAPSIS":"459.131"},{"SEMIMAJOR_AXIS":"6837.912","CENTER_NAME":"EARTH","OBJECT_NAME":"STARLINK-3748","APOAPSIS":"460.893","MEAN_ANOMALY":"226.3979","EPOCH":"2022-06-09T22:00:00.999936","ECCENTRICITY":"0.00016320","SITE":"AFETR","TIME_SYSTEM":"UTC","TLE_LINE1":"1 52267U 22041G   22160.91667824 -.00716329  00000-0 -22241-1 0  9997","CLASSIFICATION_TYPE":"U","FILE":"3489040","MEAN_ELEMENT_THEORY":"SGP4","MEAN_MOTION_DOT":"-0.00716329","MEAN_MOTION_DDOT":"0.0000000000000","BSTAR":"-0.02224100000000","OBJECT_ID":"2022-041G","EPHEMERIS_TYPE":"0","ARG_OF_PERICENTER":"46.9648","LAUNCH_DATE":"2022-04-21","INCLINATION":"53.2174","REV_AT_EPOCH":"130","TLE_LINE2":"2 52267  53.2174 135.4400 0001632  46.9648 226.3979 15.35385611  1302","NORAD_CAT_ID":"52267","REF_FRAME":"TEME","ELEMENT_SET_NO":"999","PERIOD":"93.788","OBJECT_TYPE":"PAYLOAD","MEAN_MOTION":"15.35385611","GP_ID":"205784510","COUNTRY_CODE":"US","RCS_SIZE":"LARGE","RA_OF_ASC_NODE":"135.4400","PERIAPSIS":"458.661","DECAY_DATE":null},{"SEMIMAJOR_AXIS":"6836.148","OBJECT_NAME":"STARLINK-3746","CENTER_NAME":"EARTH","APOAPSIS":"459.152","MEAN_ANOMALY":"253.3913","EPOCH":"2022-06-09T22:00:00.999936","ECCENTRICITY":"0.00016670","SITE":"AFETR","TIME_SYSTEM":"UTC","TLE_LINE1":"1 52268U 22041H   22160.91667824 -.00716132  00000-0 -21812-1 0  9993","CLASSIFICATION_TYPE":"U","FILE":"3489040","MEAN_ELEMENT_THEORY":"SGP4","MEAN_MOTION_DOT":"-0.00716132","MEAN_MOTION_DDOT":"0.0000000000000","ARG_OF_PERICENTER":"42.3887","EPHEMERIS_TYPE":"0","BSTAR":"-0.02181200000000","OBJECT_ID":"2022-041H","LAUNCH_DATE":"2022-04-21","REV_AT_EPOCH":"130","INCLINATION":"53.2175","REF_FRAME":"TEME","NORAD_CAT_ID":"52268","TLE_LINE2":"2 52268  53.2175 135.4656 0001667  42.3887 253.3913 15.35980129  1303","ELEMENT_SET_NO":"999","OBJECT_TYPE":"PAYLOAD","PERIOD":"93.751","RCS_SIZE":"LARGE","GP_ID":"205784192","MEAN_MOTION":"15.35980129","COUNTRY_CODE":"US","RA_OF_ASC_NODE":"135.4656","PERIAPSIS":"456.873","DECAY_DATE":null},{"SEMIMAJOR_AXIS":"6837.324","MEAN_ANOMALY":"225.8301","APOAPSIS":"460.203","CENTER_NAME":"EARTH","OBJECT_NAME":"STARLINK-3791","ECCENTRICITY":"0.00014830","SITE":"AFETR","EPOCH":"2022-06-09T22:00:00.999936","TIME_SYSTEM":"UTC","CLASSIFICATION_TYPE":"U","TLE_LINE1":"1 52269U 22041J   22160.91667824 -.00716141  00000-0 -22094-1 0  9997","FILE":"3489040","MEAN_ELEMENT_THEORY":"SGP4","MEAN_MOTION_DOT":"-0.00716141","MEAN_MOTION_DDOT":"0.0000000000000","OBJECT_ID":"2022-041J","BSTAR":"-0.02209400000000","EPHEMERIS_TYPE":"0","ARG_OF_PERICENTER":"55.0976","LAUNCH_DATE":"2022-04-21","TLE_LINE2":"2 52269  53.2174 135.4487 0001483  55.0976 225.8301 15.35583699  1307","NORAD_CAT_ID":"52269","REF_FRAME":"TEME","REV_AT_EPOCH":"130","INCLINATION":"53.2174","PERIOD":"93.775","OBJECT_TYPE":"PAYLOAD","ELEMENT_SET_NO":"999","COUNTRY_CODE":"US","GP_ID":"205784404","MEAN_MOTION":"15.35583699","RCS_SIZE":"LARGE","DECAY_DATE":null,"PERIAPSIS":"458.175","RA_OF_ASC_NODE":"135.4487"},{"APOAPSIS":"458.723","MEAN_ANOMALY":"258.5315","CENTER_NAME":"EARTH","OBJECT_NAME":"STARLINK-3804","SEMIMAJOR_AXIS":"6835.732","TIME_SYSTEM":"UTC","SITE":"AFETR","ECCENTRICITY":"0.00016480","EPOCH":"2022-06-09T22:00:00.999936","FILE":"3489040","MEAN_ELEMENT_THEORY":"SGP4","CLASSIFICATION_TYPE":"U","TLE_LINE1":"1 52270U 22041K   22160.91667824 -.00715876  00000-0 -21705-1 0  9991","MEAN_MOTION_DDOT":"0.0000000000000","MEAN_MOTION_DOT":"-0.00715876","LAUNCH_DATE":"2022-04-21","BSTAR":"-0.02170500000000","EPHEMERIS_TYPE":"0","OBJECT_ID":"2022-041K","ARG_OF_PERICENTER":"43.0486","PERIOD":"93.743","OBJECT_TYPE":"PAYLOAD","ELEMENT_SET_NO":"999","TLE_LINE2":"2 52270  53.2175 135.4711 0001648  43.0486 258.5315 15.36120434  1309","REF_FRAME":"TEME","NORAD_CAT_ID":"52270","INCLINATION":"53.2175","REV_AT_EPOCH":"130","PERIAPSIS":"456.470","DECAY_DATE":null,"RA_OF_ASC_NODE":"135.4711","GP_ID":"205784298","COUNTRY_CODE":"US","MEAN_MOTION":"15.36120434","RCS_SIZE":"LARGE"},{"EPOCH":"2022-06-09T22:00:00.999936","SITE":"AFETR","ECCENTRICITY":"0.00016000","TIME_SYSTEM":"UTC","SEMIMAJOR_AXIS":"6836.736","CENTER_NAME":"EARTH","OBJECT_NAME":"STARLINK-3788","MEAN_ANOMALY":"241.3500","APOAPSIS":"459.695","MEAN_MOTION_DOT":"-0.00715998","MEAN_MOTION_DDOT":"0.0000000000000","TLE_LINE1":"1 52271U 22041L   22160.91667824 -.00715998  00000-0 -21948-1 0  9996","CLASSIFICATION_TYPE":"U","MEAN_ELEMENT_THEORY":"SGP4","FILE":"3489040","EPHEMERIS_TYPE":"0","BSTAR":"-0.02194800000000","OBJECT_ID":"2022-041L","ARG_OF_PERICENTER":"47.0501","LAUNCH_DATE":"2022-04-21","COUNTRY_CODE":"US","GP_ID":"205784588","MEAN_MOTION":"15.35781838","RCS_SIZE":"LARGE","RA_OF_ASC_NODE":"135.4572","PERIAPSIS":"457.507","DECAY_DATE":null,"REV_AT_EPOCH":"130","INCLINATION":"53.2175","TLE_LINE2":"2 52271  53.2175 135.4572 0001600  47.0501 241.3500 15.35781838  1301","NORAD_CAT_ID":"52271","REF_FRAME":"TEME","ELEMENT_SET_NO":"999","PERIOD":"93.763","OBJECT_TYPE":"PAYLOAD"},{"TIME_SYSTEM":"UTC","EPOCH":"2022-06-09T22:00:00.999936","SITE":"AFETR","ECCENTRICITY":"0.00016380","CENTER_NAME":"EARTH","OBJECT_NAME":"STARLINK-3781","MEAN_ANOMALY":"267.2586","APOAPSIS":"458.154","SEMIMAJOR_AXIS":"6835.170","MEAN_MOTION_DDOT":"0.0000000000000","MEAN_MOTION_DOT":"-0.00715709","FILE":"3489040","MEAN_ELEMENT_THEORY":"SGP4","TLE_LINE1":"1 52272U 22041M   22160.91667824 -.00715709  00000-0 -21567-1 0  9994","CLASSIFICATION_TYPE":"U","LAUNCH_DATE":"2022-04-21","EPHEMERIS_TYPE":"0","BSTAR":"-0.02156700000000","OBJECT_ID":"2022-041M","ARG_OF_PERICENTER":"42.1076","RA_OF_ASC_NODE":"135.4784","PERIAPSIS":"455.915","DECAY_DATE":null,"GP_ID":"205783846","MEAN_MOTION":"15.36309827","COUNTRY_CODE":"US","RCS_SIZE":"LARGE","ELEMENT_SET_NO":"999","PERIOD":"93.731","OBJECT_TYPE":"PAYLOAD","INCLINATION":"53.2176","REV_AT_EPOCH":"130","TLE_LINE2":"2 52272  53.2176 135.4784 0001638  42.1076 267.2586 15.36309827  1308","NORAD_CAT_ID":"52272","REF_FRAME":"TEME"},{"ECCENTRICITY":"0.00013090","SITE":"AFETR","EPOCH":"2022-06-09T22:00:00.999936","TIME_SYSTEM":"UTC","SEMIMAJOR_AXIS":"6753.031","APOAPSIS":"375.780","MEAN_ANOMALY":"108.8422","CENTER_NAME":"EARTH","OBJECT_NAME":"STARLINK-3782","MEAN_MOTION_DOT":"-0.00715099","MEAN_MOTION_DDOT":"0.0000000000000","CLASSIFICATION_TYPE":"U","TLE_LINE1":"1 52273U 22041N   22160.91667824 -.00715099  00000-0 -79713-2 0  9994","FILE":"3489040","MEAN_ELEMENT_THEORY":"SGP4","BSTAR":"-0.00797130000000","EPHEMERIS_TYPE":"0","OBJECT_ID":"2022-041N","ARG_OF_PERICENTER":"65.2175","LAUNCH_DATE":"2022-04-21","GP_ID":"205784058","COUNTRY_CODE":"US","MEAN_MOTION":"15.64424666","RCS_SIZE":"LARGE","DECAY_DATE":null,"PERIAPSIS":"374.012","RA_OF_ASC_NODE":"131.3704","TLE_LINE2":"2 52273  53.2175 131.3704 0001309  65.2175 108.8422 15.64424666  1305","REF_FRAME":"TEME","NORAD_CAT_ID":"52273","INCLINATION":"53.2175","REV_AT_EPOCH":"130","PERIOD":"92.047","OBJECT_TYPE":"PAYLOAD","ELEMENT_SET_NO":"999"},{"MEAN_MOTION_DOT":"-0.00715749","MEAN_MOTION_DDOT":"0.0000000000000","TLE_LINE1":"1 52274U 22041P   22160.91667824 -.00715749  00000-0 -21405-1 0  9991","CLASSIFICATION_TYPE":"U","FILE":"3489040","MEAN_ELEMENT_THEORY":"SGP4","EPOCH":"2022-06-09T22:00:00.999936","SITE":"AFETR","ECCENTRICITY":"0.00016300","TIME_SYSTEM":"UTC","SEMIMAJOR_AXIS":"6834.474","OBJECT_NAME":"STARLINK-3790","CENTER_NAME":"EARTH","APOAPSIS":"457.453","MEAN_ANOMALY":"277.4888","RCS_SIZE":"LARGE","GP_ID":"205783953","COUNTRY_CODE":"US","MEAN_MOTION":"15.36544416","RA_OF_ASC_NODE":"135.4870","PERIAPSIS":"455.225","DECAY_DATE":null,"REV_AT_EPOCH":"130","INCLINATION":"53.2176","NORAD_CAT_ID":"52274","REF_FRAME":"TEME","TLE_LINE2":"2 52274  53.2176 135.4870 0001630  41.8407 277.4888 15.36544416  1305","ELEMENT_SET_NO":"999","OBJECT_TYPE":"PAYLOAD","PERIOD":"93.717","ARG_OF_PERICENTER":"41.8407","EPHEMERIS_TYPE":"0","BSTAR":"-0.02140500000000","OBJECT_ID":"2022-041P","LAUNCH_DATE":"2022-04-21"},{"MEAN_MOTION_DDOT":"0.0000000000000","MEAN_MOTION_DOT":"-0.00715926","FILE":"3489040","MEAN_ELEMENT_THEORY":"SGP4","CLASSIFICATION_TYPE":"U","TLE_LINE1":"1 52275U 22041Q   22160.91667824 -.00715926  00000-0 -21675-1 0  9998","TIME_SYSTEM":"UTC","SITE":"AFETR","ECCENTRICITY":"0.00016480","EPOCH":"2022-06-09T22:00:00.999936","MEAN_ANOMALY":"261.4503","APOAPSIS":"458.589","OBJECT_NAME":"STARLINK-3784","CENTER_NAME":"EARTH","SEMIMAJOR_AXIS":"6835.598","PERIAPSIS":"456.336","DECAY_DATE":null,"RA_OF_ASC_NODE":"135.4726","RCS_SIZE":"LARGE","MEAN_MOTION":"15.36165546","GP_ID":"205784511","COUNTRY_CODE":"US","OBJECT_TYPE":"PAYLOAD","PERIOD":"93.740","ELEMENT_SET_NO":"999","REF_FRAME":"TEME","NORAD_CAT_ID":"52275","TLE_LINE2":"2 52275  53.2175 135.4726 0001648  42.4316 261.4503 15.36165546  1300","REV_AT_EPOCH":"130","INCLINATION":"53.2175","LAUNCH_DATE":"2022-04-21","ARG_OF_PERICENTER":"42.4316","BSTAR":"-0.02167500000000","EPHEMERIS_TYPE":"0","OBJECT_ID":"2022-041Q"}];
